{
  "norad_id": 48364,
  "name": "STARLINK-2611",
  "history": [
    {
      "epoch": "2026-05-04T14:18:12.754080Z",
      "apogee_km": 471.8208144614009,
      "perigee_km": 469.61685265416145,
      "latitude_deg": -3.6364566109183036e-05,
      "longitude_deg": 10.835880545254277,
      "height_km": 471.5554386975038,
      "semi_major_axis_km": 6848.855833557781,
      "eccentricity": 0.0001609,
      "inclination_deg": 53.1601,
      "raan_deg": 87.8721,
      "arg_perigee_deg": 86.7952,
      "mean_anomaly_deg": 273.3233,
      "mean_motion_rev_day": 15.31707099
    },
    {
      "epoch": "2026-05-05T13:47:36.247776Z",
      "apogee_km": 471.49622780668324,
      "perigee_km": 469.8525130777771,
      "latitude_deg": -7.225567764926312e-06,
      "longitude_deg": 12.965513949623734,
      "height_km": 471.4094974938755,
      "semi_major_axis_km": 6848.81137044223,
      "eccentricity": 0.00012,
      "inclination_deg": 53.1593,
      "raan_deg": 83.3143,
      "arg_perigee_deg": 78.518,
      "mean_anomaly_deg": 281.5956,
      "mean_motion_rev_day": 15.31722015
    },
    {
      "epoch": "2026-05-06T03:53:15.427968Z",
      "apogee_km": 471.66321027377035,
      "perigee_km": 469.8140138585122,
      "latitude_deg": -4.201051074265362e-05,
      "longitude_deg": 158.23980606283232,
      "height_km": 471.44173179002036,
      "semi_major_axis_km": 6848.875612066141,
      "eccentricity": 0.000135,
      "inclination_deg": 53.1597,
      "raan_deg": 80.5807,
      "arg_perigee_deg": 77.7962,
      "mean_anomaly_deg": 282.319,
      "mean_motion_rev_day": 15.31700464
    },
    {
      "epoch": "2026-05-07T06:30:35.067744Z",
      "apogee_km": 471.61443181827326,
      "perigee_km": 469.7885314790665,
      "latitude_deg": 6.2735188371695936e-06,
      "longitude_deg": 112.65037379516826,
      "height_km": 471.44696899795167,
      "semi_major_axis_km": 6848.83848164867,
      "eccentricity": 0.0001333,
      "inclination_deg": 53.1596,
      "raan_deg": 75.4164,
      "arg_perigee_deg": 80.3475,
      "mean_anomaly_deg": 279.7677,
      "mean_motion_rev_day": 15.3171292
    },
    {
      "epoch": "2026-05-08T02:52:04.499328Z",
      "apogee_km": 471.5653994224731,
      "perigee_km": 469.886743083709,
      "latitude_deg": -2.8589925892089873e-05,
      "longitude_deg": 162.48793280700565,
      "height_km": 471.28067537285654,
      "semi_major_axis_km": 6848.863071253091,
      "eccentricity": 0.00012255,
      "inclination_deg": 53.1588,
      "raan_deg": 71.4627,
      "arg_perigee_deg": 65.7935,
      "mean_anomaly_deg": 294.3194,
      "mean_motion_rev_day": 15.31704671
    },
    {
      "epoch": "2026-05-09T05:29:23.425440Z",
      "apogee_km": 471.6148551821925,
      "perigee_km": 469.7338976257761,
      "latitude_deg": 2.243373850715736e-05,
      "longitude_deg": 116.90328552440023,
      "height_km": 471.6818300226774,
      "semi_major_axis_km": 6848.811376403984,
      "eccentricity": 0.00013732,
      "inclination_deg": 53.1607,
      "raan_deg": 66.3002,
      "arg_perigee_deg": 96.6459,
      "mean_anomaly_deg": 263.4699,
      "mean_motion_rev_day": 15.31722013
    },
    {
      "epoch": "2026-05-10T12:48:37.055808Z",
      "apogee_km": 471.50448672154016,
      "perigee_km": 469.9991009646528,
      "latitude_deg": 2.6189830526416535e-06,
      "longitude_deg": -0.26070978983639415,
      "height_km": 471.54158199841487,
      "semi_major_axis_km": 6848.888793843096,
      "eccentricity": 0.0001099,
      "inclination_deg": 53.1617,
      "raan_deg": 60.2293,
      "arg_perigee_deg": 81.6502,
      "mean_anomaly_deg": 278.4624,
      "mean_motion_rev_day": 15.31696042
    },
    {
      "epoch": "2026-05-11T12:18:02.001888Z",
      "apogee_km": 471.55796781704703,
      "perigee_km": 469.9409457246038,
      "latitude_deg": -4.3526296245990056e-05,
      "longitude_deg": 1.8623024870533298,
      "height_km": 471.6154697737331,
      "semi_major_axis_km": 6848.886456770825,
      "eccentricity": 0.00011805,
      "inclination_deg": 53.161,
      "raan_deg": 55.671,
      "arg_perigee_deg": 87.669,
      "mean_anomaly_deg": 272.4446,
      "mean_motion_rev_day": 15.31696826
    },
    {
      "epoch": "2026-05-12T11:47:26.623104Z",
      "apogee_km": 471.5472005861466,
      "perigee_km": 469.91716972008,
      "latitude_deg": 2.9887415662707864e-05,
      "longitude_deg": 3.9884618693283422,
      "height_km": 471.59745536116884,
      "semi_major_axis_km": 6848.869185153113,
      "eccentricity": 0.000119,
      "inclination_deg": 53.1611,
      "raan_deg": 51.1144,
      "arg_perigee_deg": 87.6361,
      "mean_anomaly_deg": 272.4777,
      "mean_motion_rev_day": 15.3170262
    },
    {
      "epoch": "2026-05-13T03:27:02.645568Z",
      "apogee_km": 471.5275850330745,
      "perigee_km": 469.89975020639486,
      "latitude_deg": -4.5271409789075564e-05,
      "longitude_deg": 125.4061790259593,
      "height_km": 471.61182539564646,
      "semi_major_axis_km": 6848.850667619734,
      "eccentricity": 0.00011884,
      "inclination_deg": 53.1603,
      "raan_deg": 48.0754,
      "arg_perigee_deg": 89.9538,
      "mean_anomaly_deg": 270.1599,
      "mean_motion_rev_day": 15.31708832
    },
    {
      "epoch": "2026-05-14T01:22:29.563104Z",
      "apogee_km": 471.5419819054159,
      "perigee_km": 469.8944212981196,
      "latitude_deg": 2.1397165386064875e-06,
      "longitude_deg": 151.3911659321156,
      "height_km": 471.50784921821185,
      "semi_major_axis_km": 6848.8552016017675,
      "eccentricity": 0.00012028,
      "inclination_deg": 53.1608,
      "raan_deg": 43.8229,
      "arg_perigee_deg": 82.3818,
      "mean_anomaly_deg": 277.732,
      "mean_motion_rev_day": 15.31707311
    }
  ]
}